[{"OBJECT_NAME":"COSMO-SKYMED 1","OBJECT_ID":"2007-023A","EPOCH":"2026-03-09T23:58:15.190752","MEAN_MOTION":14.96537365,"ECCENTRICITY":0.0001274,"INCLINATION":97.8873,"RA_OF_ASC_NODE":260.0329,"ARG_OF_PERICENTER":100.0972,"MEAN_ANOMALY":260.0392,"EPHEMERIS_TYPE":0,"CLASSIFICATION_TYPE":"U","NORAD_CAT_ID":31598,"ELEMENT_SET_NO":999,"REV_AT_EPOCH":1495,"BSTAR":0.00038631176,"MEAN_MOTION_DOT":4.334e-5,"MEAN_MOTION_DDOT":0},{"OBJECT_NAME":"STARLINK-5624","OBJECT_ID":"2023-014AB","EPOCH":"2026-03-09T10:13:02.063712","MEAN_MOTION":14.98326154,"ECCENTRICITY":0.00037262,"INCLINATION":69.9988,"RA_OF_ASC_NODE":85.0849,"ARG_OF_PERICENTER":272.6312,"MEAN_ANOMALY":87.442,"EPHEMERIS_TYPE":0,"CLASSIFICATION_TYPE":"U","NORAD_CAT_ID":55416,"ELEMENT_SET_NO":999,"REV_AT_EPOCH":17152,"BSTAR":0.00015353689,"MEAN_MOTION_DOT":1.739e-5,"MEAN_MOTION_DDOT":0}]
